{"type": "FeatureCollection", "features": [ {"type": "Feature", "properties": {"norad_id": 66637, "name": "STARLINK-35953", "group": "last-30-days", "lat": 29.253646495089356, "lon": -133.35698717799636, "alt_km": 374.85560896581865, "timestamp": "2025-12-09T16:56:35.360156+00:00", "meta": {"OBJECT_NAME": "STARLINK-35953", "OBJECT_ID": "2025-271W", "EPOCH": "2025-12-09T12:00:02.000160", "MEAN_MOTION": 15.64056086, "ECCENTRICITY": 7.4e-05, "INCLINATION": 53.159, "RA_OF_ASC_NODE": 202.8182, "ARG_OF_PERICENTER": 102.8326, "MEAN_ANOMALY": 214.9915, "EPHEMERIS_TYPE": 0, "CLASSIFICATION_TYPE": "U", "NORAD_CAT_ID": 66637, "ELEMENT_SET_NO": 999, "REV_AT_EPOCH": 372, "BSTAR": -0.023253, "MEAN_MOTION_DOT": -0.01974218, "MEAN_MOTION_DDOT": 0}, "tle": {"line1": "1 66637U 25271W   25343.50002315 -.01974218  00000+0 -23253-1 0  9997", "line2": "2 66637  53.1590 202.8182 0000740 102.8326 214.9915 15.64056086  3723"}}, "geometry": {"type": "Point", "coordinates": [-133.35698717799636, 29.253646495089356]}}, {"type": "Feature", "properties": {"norad_id": 66638, "name": "STARLINK-35972", "group": "last-30-days", "lat": 30.63652211577874, "lon": -131.82922312456284, "alt_km": 374.65514053543393, "timestamp": "2025-12-09T16:56:35.360168+00:00", "meta": {"OBJECT_NAME": "STARLINK-35972", "OBJECT_ID": "2025-271X", "EPOCH": "2025-12-09T12:00:02.000160", "MEAN_MOTION": 15.64055175, "ECCENTRICITY": 8.69e-05, "INCLINATION": 53.159, "RA_OF_ASC_NODE": 202.8146, "ARG_OF_PERICENTER": 110.7186, "MEAN_ANOMALY": 209.0216, "EPHEMERIS_TYPE": 0, "CLASSIFICATION_TYPE": "U", "NORAD_CAT_ID": 66638, "ELEMENT_SET_NO": 999, "REV_AT_EPOCH": 372, "BSTAR": -0.02323, "MEAN_MOTION_DOT": -0.01972537, "MEAN_MOTION_DDOT": 0}, "tle": {"line1": "1 66638U 25271X   25343.50002315 -.01972537  00000+0 -23230-1 0  9995", "line2": "2 66638  53.1590 202.8146 0000869 110.7186 209.0216 15.64055175  3725"}}, "geometry": {"type": "Point", "coordinates": [-131.82922312456284, 30.63652211577874]}}, {"type": "Feature", "properties": {"norad_id": 66639, "name": "STARLINK-35908", "group": "last-30-days", "lat": 32.004911415547824, "lon": -130.25335200842576, "alt_km": 374.408357094796, "timestamp": "2025-12-09T16:56:35.360178+00:00", "meta": {"OBJECT_NAME": "STARLINK-35908", "OBJECT_ID": "2025-271Y", "EPOCH": "2025-12-09T12:00:02.000160", "MEAN_MOTION": 15.64059678, "ECCENTRICITY": 8.05e-05, "INCLINATION": 53.159, "RA_OF_ASC_NODE": 202.8103, "ARG_OF_PERICENTER": 108.5827, "MEAN_ANOMALY": 213.0748, "EPHEMERIS_TYPE": 0, "CLASSIFICATION_TYPE": "U", "NORAD_CAT_ID": 66639, "ELEMENT_SET_NO": 999, "REV_AT_EPOCH": 372, "BSTAR": -0.023333, "MEAN_MOTION_DOT": -0.01980495, "MEAN_MOTION_DDOT": 0}, "tle": {"line1": "1 66639U 25271Y   25343.50002315 -.01980495  00000+0 -23333-1 0  9992", "line2": "2 66639  53.1590 202.8103 0000805 108.5827 213.0748 15.64059678  3723"}}, "geometry": {"type": "Point", "coordinates": [-130.25335200842576, 32.004911415547824]}}, {"type": "Feature", "properties": {"norad_id": 66640, "name": "STARLINK-35921", "group": "last-30-days", "lat": 33.35093171347632, "lon": -128.63254622982961, "alt_km": 374.1595691380835, "timestamp": "2025-12-09T16:56:35.360188+00:00", "meta": {"OBJECT_NAME": "STARLINK-35921", "OBJECT_ID": "2025-271Z", "EPOCH": "2025-12-09T12:00:02.000160", "MEAN_MOTION": 15.64051814, "ECCENTRICITY": 8.4e-05, "INCLINATION": 53.159, "RA_OF_ASC_NODE": 202.8061, "ARG_OF_PERICENTER": 107.4946, "MEAN_ANOMALY": 216.0837, "EPHEMERIS_TYPE": 0, "CLASSIFICATION_TYPE": "U", "NORAD_CAT_ID": 66640, "ELEMENT_SET_NO": 999, "REV_AT_EPOCH": 372, "BSTAR": -0.023202, "MEAN_MOTION_DOT": -0.01970229, "MEAN_MOTION_DDOT": 0}, "tle": {"line1": "1 66640U 25271Z   25343.50002315 -.01970229  00000+0 -23202-1 0  9993", "line2": "2 66640  53.1590 202.8061 0000840 107.4946 216.0837 15.64051814  3723"}}, "geometry": {"type": "Point", "coordinates": [-128.63254622982961, 33.35093171347632]}}, {"type": "Feature", "properties": {"norad_id": 66641, "name": "STARLINK-35923", "group": "last-30-days", "lat": 38.49823757702669, "lon": -121.60862897707305, "alt_km": 373.29132233517703, "timestamp": "2025-12-09T16:56:35.360198+00:00", "meta": {"OBJECT_NAME": "STARLINK-35923", "OBJECT_ID": "2025-271AA", "EPOCH": "2025-12-09T12:00:02.000160", "MEAN_MOTION": 15.64053203, "ECCENTRICITY": 8.04e-05, "INCLINATION": 53.1592, "RA_OF_ASC_NODE": 202.7895, "ARG_OF_PERICENTER": 109.3972, "MEAN_ANOMALY": 221.8464, "EPHEMERIS_TYPE": 0, "CLASSIFICATION_TYPE": "U", "NORAD_CAT_ID": 66641, "ELEMENT_SET_NO": 999, "REV_AT_EPOCH": 372, "BSTAR": -0.023215, "MEAN_MOTION_DOT": -0.01971216, "MEAN_MOTION_DDOT": 0}, "tle": {"line1": "1 66641U 25271AA  25343.50002315 -.01971216  00000+0 -23215-1 0  9995", "line2": "2 66641  53.1592 202.7895 0000804 109.3972 221.8464 15.64053203  3724"}}, "geometry": {"type": "Point", "coordinates": [-121.60862897707305, 38.49823757702669]}}, {"type": "Feature", "properties": {"norad_id": 66642, "name": "STARLINK-35926", "group": "last-30-days", "lat": 37.250315760117644, "lon": -123.45256032375612, "alt_km": 373.50366752290574, "timestamp": "2025-12-09T16:56:35.360209+00:00", "meta": {"OBJECT_NAME": "STARLINK-35926", "OBJECT_ID": "2025-271AB", "EPOCH": "2025-12-09T12:00:02.000160", "MEAN_MOTION": 15.64051521, "ECCENTRICITY": 6.59e-05, "INCLINATION": 53.1591, "RA_OF_ASC_NODE": 202.7944, "ARG_OF_PERICENTER": 103.1663, "MEAN_ANOMALY": 226.1586, "EPHEMERIS_TYPE": 0, "CLASSIFICATION_TYPE": "U", "NORAD_CAT_ID": 66642, "ELEMENT_SET_NO": 999, "REV_AT_EPOCH": 348, "BSTAR": -0.023161, "MEAN_MOTION_DOT": -0.01966992, "MEAN_MOTION_DDOT": 0}, "tle": {"line1": "1 66642U 25271AB  25343.50002315 -.01966992  00000+0 -23161-1 0  9991", "line2": "2 66642  53.1591 202.7944 0000659 103.1663 226.1586 15.64051521  3483"}}, "geometry": {"type": "Point", "coordinates": [-123.45256032375612, 37.250315760117644]}}, {"type": "Feature", "properties": {"norad_id": 66643, "name": "STARLINK-35918", "group": "last-30-days", "lat": 34.674267961841736, "lon": -126.96191153618098, "alt_km": 373.9301615173017, "timestamp": "2025-12-09T16:56:35.360219+00:00", "meta": {"OBJECT_NAME": "STARLINK-35918", "OBJECT_ID": "2025-271AC", "EPOCH": "2025-12-09T12:00:02.000160", "MEAN_MOTION": 15.64050306, "ECCENTRICITY": 8.61e-05, "INCLINATION": 53.1593, "RA_OF_ASC_NODE": 202.8026, "ARG_OF_PERICENTER": 108.4293, "MEAN_ANOMALY": 217.0648, "EPHEMERIS_TYPE": 0, "CLASSIFICATION_TYPE": "U", "NORAD_CAT_ID": 66643, "ELEMENT_SET_NO": 999, "REV_AT_EPOCH": 372, "BSTAR": -0.02316, "MEAN_MOTION_DOT": -0.01966949, "MEAN_MOTION_DDOT": 0}, "tle": {"line1": "1 66643U 25271AC  25343.50002315 -.01966949  00000+0 -23160-1 0  9993", "line2": "2 66643  53.1593 202.8026 0000861 108.4293 217.0648 15.64050306  3725"}}, "geometry": {"type": "Point", "coordinates": [-126.96191153618098, 34.674267961841736]}}, {"type": "Feature", "properties": {"norad_id": 66644, "name": "STARLINK-35938", "group": "last-30-days", "lat": 35.97591624270718, "lon": -125.23466330320137, "alt_km": 373.72264297419497, "timestamp": "2025-12-09T16:56:35.360229+00:00", "meta": {"OBJECT_NAME": "STARLINK-35938", "OBJECT_ID": "2025-271AD", "EPOCH": "2025-12-09T12:00:02.000160", "MEAN_MOTION": 15.64057013, "ECCENTRICITY": 8.27e-05, "INCLINATION": 53.1589, "RA_OF_ASC_NODE": 202.7983, "ARG_OF_PERICENTER": 109.7679, "MEAN_ANOMALY": 217.6413, "EPHEMERIS_TYPE": 0, "CLASSIFICATION_TYPE": "U", "NORAD_CAT_ID": 66644, "ELEMENT_SET_NO": 999, "REV_AT_EPOCH": 372, "BSTAR": -0.023294, "MEAN_MOTION_DOT": -0.01977417, "MEAN_MOTION_DDOT": 0}, "tle": {"line1": "1 66644U 25271AD  25343.50002315 -.01977417  00000+0 -23294-1 0  9994", "line2": "2 66644  53.1589 202.7983 0000827 109.7679 217.6413 15.64057013  3724"}}, "geometry": {"type": "Point", "coordinates": [-125.23466330320137, 35.97591624270718]}}, {"type": "Feature", "properties": {"norad_id": 66645, "name": "SHENZHOU-22", "group": "last-30-days", "lat": 7.354028306789868, "lon": 43.52603205538469, "alt_km": 383.1818888001071, "timestamp": "2025-12-09T16:56:35.360240+00:00", "meta": {"OBJECT_NAME": "SHENZHOU-22", "OBJECT_ID": "2025-272A", "EPOCH": "2025-12-09T04:35:44.551104", "MEAN_MOTION": 15.58940873, "ECCENTRICITY": 0.00089717, "INCLINATION": 41.468, "RA_OF_ASC_NODE": 38.2458, "ARG_OF_PERICENTER": 2.1097, "MEAN_ANOMALY": 357.9778, "EPHEMERIS_TYPE": 0, "CLASSIFICATION_TYPE": "U", "NORAD_CAT_ID": 66645, "ELEMENT_SET_NO": 999, "REV_AT_EPOCH": 26300, "BSTAR": 0.00038224086, "MEAN_MOTION_DOT": 0.00030369, "MEAN_MOTION_DDOT": 0}, "tle": {"line1": "1 66645U 25272A   25343.19148786  .00030369  00000+0  38224-3 0  9998", "line2": "2 66645  41.4680  38.2458 0008971   2.1097 357.9778 15.58940873263003"}}, "geometry": {"type": "Point", "coordinates": [43.52603205538469, 7.354028306789868]}}, {"type": "Feature", "properties": {"norad_id": 66647, "name": "COSMOS 2597 (RODNIK-S 22)", "group": "last-30-days", "lat": -50.83055930465971, "lon": 117.63961229083142, "alt_km": 1502.519298311101, "timestamp": "2025-12-09T16:56:35.360250+00:00", "meta": {"OBJECT_NAME": "COSMOS 2597 (RODNIK-S 22)", "OBJECT_ID": "2025-273A", "EPOCH": "2025-12-09T11:50:00.631104", "MEAN_MOTION": 12.4195124, "ECCENTRICITY": 0.000796, "INCLINATION": 82.4984, "RA_OF_ASC_NODE": 288.4651, "ARG_OF_PERICENTER": 296.9217, "MEAN_ANOMALY": 63.1048, "EPHEMERIS_TYPE": 0, "CLASSIFICATION_TYPE": "U", "NORAD_CAT_ID": 66647, "ELEMENT_SET_NO": 999, "REV_AT_EPOCH": 173, "BSTAR": 0.00022199, "MEAN_MOTION_DOT": 4e-07, "MEAN_MOTION_DDOT": 0}, "tle": {"line1": "1 66647U 25273A   25343.49306286  .00000040  00000+0  22199-3 0  9992", "line2": "2 66647  82.4984 288.4651 0007960 296.9217  63.1048 12.41951240  1730"}}, "geometry": {"type": "Point", "coordinates": [117.63961229083142, -50.83055930465971]}}]}